#aV2024  4 30  0  0  0.00000000     288 DD+AD WGS84 FIT  NGA
## 2312 172800.00000000   300.00000000 60430 0.0000000000000
+   31     2  3  4  5  6  7  8  9 10 11 12 13 14 15 16 17 18
+         19 20 21 22 23 24 25 26 27 28 29 30 31 32  0  0  0
+          0  0  0  0  0  0  0  0  0  0  0  0  0  0  0  0  0
+          0  0  0  0  0  0  0  0  0  0  0  0  0  0  0  0  0
+          0  0  0  0  0  0  0  0  0  0  0  0  0  0  0  0  0
++         2  2  2  2  2  2  2  2  2  2  2  2  2  2  2  2  2
++         2  2  2  2  2  2  2  2  2  2  2  2  2  2  0  0  0
++         0  0  0  0  0  0  0  0  0  0  0  0  0  0  0  0  0
++         0  0  0  0  0  0  0  0  0  0  0  0  0  0  0  0  0
++         0  0  0  0  0  0  0  0  0  0  0  0  0  0  0  0  0
%c cc cc ccc ccc cccc cccc cccc cccc ccccc ccccc ccccc ccccc
%c cc cc ccc ccc cccc cccc cccc cccc ccccc ccccc ccccc ccccc
%f  0.0000000  0.000000000  0.00000000000  0.000000000000000
%f  0.0000000  0.000000000  0.00000000000  0.000000000000000
%i    0    0    0    0      0      0      0      0         0
%i    0    0    0    0      0      0      0      0         0
/*      NGA, ST. LOUIS,MO.                                  
/*   EPHEMERIS COMPUTED FROM 2 DAYS OF DATA                 
/*   EPOCHA v9 SMOOTHER                                     
/*   G2296 IERS2010 SATIGS SATAPC                           
*  2024  4 30 12  5  0.00000000
P  2  12684.710773 -21053.833564  -9209.825992   -444.479001                    
V  2  10840.607244  -6707.519355  29050.155057      0.066276                    
P  3   1494.402904 -15074.204739 -21981.262556    338.706238                    
V  3  25727.377451   9612.413947  -4756.911588      0.202138                    
P  4   2180.613680 -25254.928509  -7682.071333    350.543922                    
V  4   3853.902661   9401.744342 -29872.292635      0.085915                    
P  5 -16737.414708   8079.653738  18831.966558   -171.005833                    
V  5 -22639.917293  -8710.626900 -16144.294159     -0.013694                    
P  6 -19601.042306    523.430113 -17907.123134    296.871899                    
V  6  17174.357334 -14964.209899 -19061.061038     -0.188188                    
P  7  -5765.548138 -15121.663678  21505.214721   -118.661737                    
V  7  20833.822705 -15969.383787  -6251.111146     -0.082734                    
P  8   7794.671317 -19385.862882  16033.725916    152.197929                    
V  8   6296.206665  19912.355561  21294.449611      0.216231                    
P  9  -7888.940061 -24912.575911   4511.434887    179.065598                    
V  9   1780.878822  -6272.267261 -31033.461575      0.138854                    
P 10  24301.633928  10937.130858   2367.760641    -15.702645                    
V 10  -3176.965666    705.590399  31861.323910     -0.055492                    
P 11 -23119.856568  10617.317834  -7518.144336   -650.233620                    
V 11   6206.841397  -7727.286096 -29958.753653     -0.098841                    
P 12  -4321.000020  14798.380675 -21916.152848   -501.197431                    
V 12 -24728.687814 -11187.726305  -2659.897545     -0.033761                    
P 13 -13262.925676  11401.729141  19712.822833    646.853913                    
V 13  -1720.608105 -25493.522415  13673.291972      0.029742                    
P 14 -22337.292241 -13473.836649   5579.379924    389.141364                    
V 14   7630.419638   -114.648630  30232.662361      0.094130                    
P 15  -5381.141510  20456.984358  15447.938564    153.955237                    
V 15  -8968.782400 -18822.316827  21327.078720      0.040997                    
P 16  20478.298137  -2929.583255  16573.570205   -303.779602                    
V 16  18662.648808  10804.943394 -20292.148661      0.096955                    
P 17 -12512.488663 -16925.773724 -15683.674035    709.502777                    
V 17    -78.634993 -20826.506138  22110.755012     -0.019712                    
P 18   5747.345179  14196.020870  21689.279090   -603.159924                    
V 18 -21922.095900  16604.254799  -5248.364814     -0.061898                    
P 19 -14807.664015  -7879.501648 -20863.870789    475.448039                    
V 19   -818.732213 -25955.578015  10100.986348      0.053439                    
P 20 -24131.276852   3052.380347  10551.895266    378.294566                    
V 20 -12625.125498  -5198.366984 -27675.685932     -0.013817                    
P 21  16015.772614 -19927.941802  -4364.865054    124.366590                    
V 21   7035.333319  -1771.846748  31777.277621     -0.022153                    
P 22 -24235.439535 -10157.405323  -2120.500521     -6.963015                    
V 22  -1559.855638  -4162.316027  31817.086111     -0.054416                    
P 23  17216.351619  15434.369076  13267.951065    213.689355                    
V 23 -16314.422650  -3933.005146  25600.104818      0.095159                    
P 24 -13067.367381  21498.700606  -8246.918597   -464.992334                    
V 24  -9721.376109   4497.549827  28983.392461     -0.039210                    
P 25   6954.701346  17231.839707 -19410.866856    494.832217                    
V 25 -22876.434637  -6945.778895 -14359.668890      0.007614                    
P 26  25956.005728   3419.530813   5362.503387    159.616946                    
V 26   5746.154413   5145.103399 -29872.578335     -0.053191                    
P 27  13543.887532  -7938.961668  21073.089902    -21.578330                    
V 27   5404.963174  26979.213336   7016.922655     -0.020374                    
P 28  18394.139429   1656.729266 -19099.222650   -224.258135                    
V 28 -17382.097014  16927.365145 -15284.960264     -0.157023                    
P 29   3855.611582  26102.292139   2395.421683   -600.145262                    
V 29  -2293.029247   3319.425539 -31872.671474      0.013562                    
P 30 -15533.836124  -6942.920059  20593.078470   -397.571458                    
V 30  19521.133979 -16989.795300   8790.372805      0.057301                    
P 31  22940.060262  -7113.200507 -11976.643483   -227.941163                    
V 31 -10293.427406  10784.714418 -26205.032365      0.000451                    
P 32  14569.360159  13932.302226 -17183.811659   -618.425639                    
V 32   2127.817527  22115.483166  19297.911634     -0.000261                    
EOF
